{
  "norad_id": 61752,
  "name": "SITRO-AIS 14",
  "history": [
    {
      "epoch": "2026-03-28T22:26:49.426656Z",
      "apogee_km": 579.64247214039,
      "perigee_km": 571.1535965704488,
      "latitude_deg": 1.626399846461043e-05,
      "longitude_deg": 129.27704946032836,
      "height_km": 574.2437623671444,
      "semi_major_axis_km": 6953.535034355419,
      "eccentricity": 0.0006104,
      "inclination_deg": 97.3314,
      "raan_deg": 292.3316,
      "arg_perigee_deg": 353.347,
      "mean_anomaly_deg": 6.7671,
      "mean_motion_rev_day": 14.97249895
    },
    {
      "epoch": "2026-03-29T04:51:46.193472Z",
      "apogee_km": 579.6225684055162,
      "perigee_km": 571.1573446886159,
      "latitude_deg": 8.595815703089097e-05,
      "longitude_deg": 33.02782596830599,
      "height_km": 574.2583297895333,
      "semi_major_axis_km": 6953.526956547066,
      "eccentricity": 0.0006087,
      "inclination_deg": 97.3312,
      "raan_deg": 292.5824,
      "arg_perigee_deg": 352.193,
      "mean_anomaly_deg": 7.9198,
      "mean_motion_rev_day": 14.97252504
    },
    {
      "epoch": "2026-03-30T03:19:04.682496Z",
      "apogee_km": 579.5638300173632,
      "perigee_km": 571.1820691241519,
      "latitude_deg": -2.0131110183091723e-05,
      "longitude_deg": 56.15660284757133,
      "height_km": 574.332345322276,
      "semi_major_axis_km": 6953.509949570757,
      "eccentricity": 0.0006027,
      "inclination_deg": 97.3307,
      "raan_deg": 293.4604,
      "arg_perigee_deg": 348.2424,
      "mean_anomaly_deg": 11.8657,
      "mean_motion_rev_day": 14.97257997
    },
    {
      "epoch": "2026-03-30T06:31:33.009312Z",
      "apogee_km": 579.5540955717424,
      "perigee_km": 571.1858280834613,
      "latitude_deg": 6.290658197715684e-05,
      "longitude_deg": 8.032221497413346,
      "height_km": 574.3451963821426,
      "semi_major_axis_km": 6953.506961827601,
      "eccentricity": 0.00060173,
      "inclination_deg": 97.3306,
      "raan_deg": 293.5858,
      "arg_perigee_deg": 347.6421,
      "mean_anomaly_deg": 12.4654,
      "mean_motion_rev_day": 14.97258962
    },
    {
      "epoch": "2026-03-30T14:32:43.780128Z",
      "apogee_km": 579.5350767273976,
      "perigee_km": 571.1880970237107,
      "latitude_deg": -2.79229448986059e-05,
      "longitude_deg": -112.27850056939904,
      "height_km": 574.3736528719747,
      "semi_major_axis_km": 6953.498586875554,
      "eccentricity": 0.0006002,
      "inclination_deg": 97.3304,
      "raan_deg": 293.8993,
      "arg_perigee_deg": 346.0607,
      "mean_anomaly_deg": 14.0449,
      "mean_motion_rev_day": 14.97261667
    },
    {
      "epoch": "2026-03-30T17:45:12.081888Z",
      "apogee_km": 579.5263326716995,
      "perigee_km": 571.1907603503641,
      "latitude_deg": -4.382742319774353e-05,
      "longitude_deg": -160.40276457484424,
      "height_km": 574.3871319531839,
      "semi_major_axis_km": 6953.4955465110315,
      "eccentricity": 0.00059938,
      "inclination_deg": 97.3303,
      "raan_deg": 294.0247,
      "arg_perigee_deg": 345.4518,
      "mean_anomaly_deg": 14.6531,
      "mean_motion_rev_day": 14.97262649
    },
    {
      "epoch": "2026-03-31T19:24:58.273056Z",
      "apogee_km": 579.4629385953322,
      "perigee_km": 571.2133356926242,
      "latitude_deg": 4.0599761634540994e-05,
      "longitude_deg": 174.60412784635136,
      "height_km": 574.5101317983149,
      "semi_major_axis_km": 6953.475137143978,
      "eccentricity": 0.0005932,
      "inclination_deg": 97.3298,
      "raan_deg": 295.028,
      "arg_perigee_deg": 340.6316,
      "mean_anomaly_deg": 19.4681,
      "mean_motion_rev_day": 14.97269241
    },
    {
      "epoch": "2026-04-01T19:28:29.923680Z",
      "apogee_km": 579.3921740874721,
      "perigee_km": 571.2482849802418,
      "latitude_deg": 6.014568586752274e-06,
      "longitude_deg": 173.6744964678191,
      "height_km": 574.656706487542,
      "semi_major_axis_km": 6953.457229533857,
      "eccentricity": 0.0005856,
      "inclination_deg": 97.3293,
      "raan_deg": 295.9683,
      "arg_perigee_deg": 336.2606,
      "mean_anomaly_deg": 23.8346,
      "mean_motion_rev_day": 14.97275025
    },
    {
      "epoch": "2026-04-02T19:32:01.125024Z",
      "apogee_km": 579.293142647718,
      "perigee_km": 571.2758476638037,
      "latitude_deg": 6.951229826718434e-06,
      "longitude_deg": 172.74673720246474,
      "height_km": 574.806437693682,
      "semi_major_axis_km": 6953.421495155761,
      "eccentricity": 0.0005765,
      "inclination_deg": 97.3288,
      "raan_deg": 296.9086,
      "arg_perigee_deg": 332.0904,
      "mean_anomaly_deg": 28.0009,
      "mean_motion_rev_day": 14.97286567
    },
    {
      "epoch": "2026-04-02T22:44:29.247936Z",
      "apogee_km": 579.2802450152067,
      "perigee_km": 571.2824232472885,
      "latitude_deg": 2.838325989537841e-05,
      "longitude_deg": 124.62321560006558,
      "height_km": 574.831381101014,
      "semi_major_axis_km": 6953.418334131247,
      "eccentricity": 0.0005751,
      "inclination_deg": 97.3287,
      "raan_deg": 297.034,
      "arg_perigee_deg": 331.501,
      "mean_anomaly_deg": 28.5898,
      "mean_motion_rev_day": 14.97287588
    },
    {
      "epoch": "2026-04-03T19:35:31.795872Z",
      "apogee_km": 579.2187721626051,
      "perigee_km": 571.2905150105871,
      "latitude_deg": -2.8395888645968692e-05,
      "longitude_deg": 171.82109829771775,
      "height_km": 574.9680964087556,
      "semi_major_axis_km": 6953.391643586596,
      "eccentricity": 0.0005701,
      "inclination_deg": 97.3285,
      "raan_deg": 297.8488,
      "arg_perigee_deg": 327.7161,
      "mean_anomaly_deg": 32.3712,
      "mean_motion_rev_day": 14.97296209
    },
    {
      "epoch": "2026-04-04T19:39:01.808352Z",
      "apogee_km": 579.1212850144357,
      "perigee_km": 571.3376865702394,
      "latitude_deg": 1.8976845094535823e-05,
      "longitude_deg": 170.89809866263667,
      "height_km": 575.1660168933648,
      "semi_major_axis_km": 6953.366485792338,
      "eccentricity": 0.0005597,
      "inclination_deg": 97.3283,
      "raan_deg": 298.7889,
      "arg_perigee_deg": 323.5037,
      "mean_anomaly_deg": 36.5804,
      "mean_motion_rev_day": 14.97304335
    },
    {
      "epoch": "2026-04-05T13:17:35.535264Z",
      "apogee_km": 579.0538393659635,
      "perigee_km": 571.367330811504,
      "latitude_deg": 5.7871874139569725e-05,
      "longitude_deg": -93.77759629817908,
      "height_km": 575.3055263610098,
      "semi_major_axis_km": 6953.3475850887335,
      "eccentricity": 0.00055272,
      "inclination_deg": 97.3283,
      "raan_deg": 299.4783,
      "arg_perigee_deg": 320.614,
      "mean_anomaly_deg": 39.4681,
      "mean_motion_rev_day": 14.9731044
    }
  ]
}